#dP2020  9  4  0  0  0.00000000      96 __u+U ITR00 FIT  IAC
## 2121 432000.00000000   900.00000000 59096 0.0000000000000
+  105   C02C05C06C07C09C10C11C12C13C14C16C19C20C21C22C23C24
+        C25C26C27C28C30C32C33C34C37E01E02E03E04E05E07E08E09
+        E11E12E13E14E15E18E19E21E24E25E26E27E30E31E33E36G01
+        G02G03G04G05G06G07G08G09G10G11G12G13G15G16G17G18G19
+        G20G21G22G24G25G26G27G28G29G30G31G32J02J03R01R02R03
+        R04R05R07R08R09R11R12R13R14R15R16R17R18R19R20R21R22
+        R23R24R26  0  0  0  0  0  0  0  0  0  0  0  0  0  0
++         0 17 12 12 11 12  9  8  9  9 11 10 10  9  9  9  9
++         9 10 10 10 10 11  9 10 10  8  6  7  7  7  6  6  7
++         6  8  6  6  6  7  6  6  7  7  7  6  6  8  8  8  4
++         4  3  4  4  3  4  4  4  4  4  4  4  4  4  4  4  4
++         4  4  4  3  3  4  4  4  4  4  4  3 11 10  6  6  5
++         6  6  6  5  0  6  5  7  6  6  6  6  6  6  6  6  6
++         6  6 10  0  0  0  0  0  0  0  0  0  0  0  0  0  0
%c M  cc GPS ccc cccc cccc cccc cccc ccccc ccccc ccccc ccccc
%c cc cc ccc ccc cccc cccc cccc cccc ccccc ccccc ccccc ccccc
%f  0.0000000  0.000000000  0.00000000000  0.000000000000000
%f  0.0000000  0.000000000  0.00000000000  0.000000000000000
%i    0    0    0    0      0      0      0      0         0
%i    0    0    0    0      0      0      0      0         0
/* INFORMATION & ANALYSIS CENTER (IAC)            RAPID DATA
/* S/V CLOCKS ARE ALIGNED TO GNSS TIME                      
/* G:C1WC2W R:C1PC2P E:C1XC5X C:C2IC6I J:C1CC2S             
/* PCV:IGS14_2118 OL/AL:FES2004  NONE     YN ORB:CoN CLK:CoN
*  2020 09 04 16 30  0.00000000
PC02      0.000000      0.000000      0.000000 999999.999999
PC05  21898.402529  36016.900904   -785.910963   -184.069368
PC06 -22146.388581  34770.112273   8029.411342    233.686947
PC07  -8647.415555  32177.948127  26359.894984     16.522772
PC09 -11727.319854  34574.508268  20999.341294    788.577630
PC10   2910.379456  38813.448435  16971.628499   -194.701265
PC11  22927.958749  -4725.514627 -15088.265397   -599.443615
PC12  10932.147097  10871.200790 -23228.744688    496.101022
PC13  -1258.478286  22881.234910 -35308.965388    630.594957
PC14  16289.424598   3668.946118  22389.184391    933.321645
PC16 -19346.383595  35586.963975  11399.116479   -588.850637
PC19 -14668.082405   7573.260629 -22482.234093    534.265494
PC20 -15371.330607 -12989.940654 -19308.395815   -839.841273
PC21   6879.839983  26687.593891   4472.126436   -673.249146
PC22  -5484.836009  24265.323187 -12676.380391   -764.777880
PC23   8089.026113 -14126.366361 -22651.298157   -856.721104
PC24  25070.213983  12066.381004   2022.175503   -732.287048
PC25  23344.470927  -2430.934962 -15081.204655   -745.285765
PC26  13032.993543  17972.347648  16889.655635    817.889391
PC27  -1860.548020 -17363.411574  21750.961759    393.311561
PC28  15823.105050 -20609.590914  10162.010130   -174.326177
PC30 -18325.594846  -3618.390782  20723.511928    370.988289
PC32  -7053.473439 -26626.180994  -4432.911346   -895.825165
PC33  14701.328963  -7518.914527  22494.508275   -795.181184
PC34  18713.244119   3203.497371 -20466.294242   -862.333217
PC37 -11975.379934 -18304.787437 -17306.877262   -924.298451
PE01 -18624.868066 -22904.878390  -2122.350083   -933.843836
PE02  18670.646170  22874.383004   2042.301574    159.248810
PE03   8244.127548  20294.420057  19914.953591   -339.212651
PE04 -17615.689277   -276.081793 -23783.086942   -600.360466
PE05  -6080.251253  28649.413076   4314.270741   -348.903188
PE07  16743.396152 -20206.174586  13686.994965   -431.749276
PE08  17538.125629   -139.386273  23843.498272   6125.367070
PE09 -16502.859765  20453.461676 -13634.918861   5941.657441
PE11 -24747.361644  12509.539860 -10359.048292   5270.298469
PE12 -28187.936402    221.970061   9014.539458   5622.014864
PE13  24872.278656 -12443.672922  10127.277831    403.459158
PE14  21640.523355   2110.221252 -22930.739290  -1144.164922
PE15  28234.253856   -487.140935  -8864.655978    853.774352
PE18 -19861.290454  10075.988432  12116.067256  -1250.707637
PE19  -6675.932264 -21925.954203 -18728.073744     70.200265
PE21  -3752.334099 -22737.417190 -18566.807801   -619.598996
PE24 -14084.581914   8926.428428  24453.983317   5261.536020
PE25   3607.649942  22689.535249  18679.806644   -516.118252
PE26   6357.345501 -17185.362102  23242.038246   2764.534935
PE27  13694.516324  -9334.182981 -24513.971373    141.159650
PE30  23044.823789  10032.176035 -15630.689416   3611.193904
PE31 -23006.511973  -9458.161751  16054.571388   -473.940081
PE33 -15007.235471 -11753.960705  22645.663399   -463.022214
PE36  -6907.727981  17087.951454 -23163.358401    511.828575
PG01  11947.413157  13714.877584 -19708.800100     35.984995
PG02  11230.963044 -14367.436290  19943.366733   -511.850532
PG03  12644.899114  23418.992740    293.089126   -289.711012
PG04   5383.120611  16837.546327  19819.964538   -132.251596
PG05   2129.111386 -20253.544416  16797.664158    -20.350131
PG06  23407.372408  -6461.145454  10854.809953   -322.593465
PG07  25003.988487   6492.107660   7512.933433   -365.294744
PG08  -3336.211002  22781.972484 -12995.872857    -46.800770
PG09  14528.509076   5467.846018  21497.681044   -281.019065
PG10 -16547.676926   -599.658551 -20732.879561   -445.922812
PG11   1674.405460  17004.545115 -20868.437042   -173.598239
PG12 -10089.069866 -24641.647084  -1125.670958     71.601249
PG13  12210.143692 -22489.774935  -7024.606447     42.157167
PG15   -171.165382 -22861.296938 -13534.037006   -205.943951
PG16  -2225.632272  21254.417470  15253.568824   -204.697828
PG17  19317.919635 -11506.107199 -13678.751362    321.101711
PG18 -25123.973836  -5897.725935   6365.606591    283.866089
PG19  19502.209366 -16195.347272  -8110.588307   -109.322731
PG20 -20231.352889 -11045.806034 -13482.205313    526.843194
PG21 -15654.495329  12350.055977 -16666.010902     43.436338
PG22   9080.603552  23889.029195  -7312.351392   -757.782371
PG24  -9346.509934 -14721.096678 -20330.798452    -18.128930
PG25 -16837.295784 -18588.657476   8894.765143     44.482415
PG26 -11294.297421  11133.066524  21248.867216    273.159542
PG27 -12002.759149  23288.739629  -3193.970106   -387.715905
PG28  15391.240912    -63.454647 -21043.726066    682.364811
PG29 -11252.891427  -9418.634555  22096.822717   -187.626860
PG30  26505.861137   -399.683074  -2954.174284   -295.464963
PG31 -22665.506591   7232.028810  12221.168692    -66.578050
PG32 -18920.244596  12703.093125 -13429.743265    342.008534
PJ02 -26586.067055  20386.705217  30490.568128     -3.232737
PJ03 -34705.428688  24040.759236   4089.290846     -0.876642
PR01   7028.870794 -20594.173663  13296.039835     67.080555
PR02  -2288.712238 -24257.024156  -7614.075294    444.097624
PR03  -9266.070678 -11708.137943 -20657.908600     21.418761
PR04 -10666.100650   7394.507513 -21935.325933     53.397580
PR05  -6223.204655  22235.075345 -10810.123019     56.991487
PR07   9452.730401  10997.431494  21006.327915    -39.860780
PR08  10816.110462  -7383.107055  21943.113840    -54.370810
PR09      0.000000      0.000000      0.000000 999999.999999
PR11  18343.039162   1477.390599 -17667.734585    -36.469699
PR12   4630.379940  -9999.364398 -22971.228875    161.069860
PR13 -12198.630208 -16283.552842 -15388.843494    -43.388176
PR14 -21836.177189 -13069.193415   1611.826091     55.190431
PR15 -18694.112361  -2269.433019  17231.182571    106.981036
PR16  -3957.990911  10574.001721  22852.985582     -6.018870
PR17 -15978.946178  -1981.567900  19804.862100    355.354827
PR18 -23184.917405   8516.545807   6290.787616     48.201597
PR19 -18808.944950  13937.751430 -10150.901571   -109.759333
PR20  -1327.216517  11748.468071 -22594.762797   -420.953298
PR21  16626.166389   1339.458505 -19288.936781   -149.857670
PR22  23339.126106  -9083.473924  -5090.953153    -71.350401
PR23  13188.276219 -14664.505522  16159.508038    329.806687
PR24    279.226795 -11907.839444  22564.996824     12.104326
PR26  -6451.578000  13552.484842 -20626.972390   -362.322733
EOF
